NORAD_CAT_ID,OBJECT_NAME,OBJECT_TYPE,EPOCH,MEAN_MOTION,ECCENTRICITY,INCLINATION,RA_OF_ASC_NODE,ARG_OF_PERICENTER,MEAN_ANOMALY,BSTAR,MEAN_MOTION_DOT,MEAN_MOTION_DDOT,TLE_LINE0,TLE_LINE1,TLE_LINE2,SEMIMAJOR_AXIS,PERIOD,APOGEE,PERIGEE,DECAYED
51469.0,STARLINK-3182,PAYLOAD,2023-03-26 17:04:56,15.0883125,8.43e-05,53.2155,82.8388,90.1562,269.9527,-5.9265e-05,-1.23e-05,0.0,0 STARLINK-3182,1 51469U 22010P   23085.71176080 -.00001230  00000-0 -59265-4 0  9997,2 51469  53.2155  82.8388 0000843  90.1562 269.9527 15.08831250 64433,6917.907,95.438,540.355,539.189,0.0
51469.0,STARLINK-3182,PAYLOAD,2023-03-27 08:58:47,15.08845965,0.0001532,53.215,79.8638,90.2454,269.8714,0.00038409,5.831e-05,0.0,0 STARLINK-3182,1 51469U 22010P   23086.37416234  .00005831  00000-0  38409-3 0  9993,2 51469  53.2150  79.8638 0001532  90.2454 269.8714 15.08845965 64535,6917.862,95.437,540.787,538.667,0.0
51469.0,STARLINK-3182,PAYLOAD,2023-03-27 16:55:43,15.08844139,0.0001493,53.2147,78.3769,89.6585,270.4578,0.00039974,6.08e-05,0.0,0 STARLINK-3182,1 51469U 22010P   23086.70536331  .00006080  00000-0  39974-3 0  9996,2 51469  53.2147  78.3769 0001493  89.6585 270.4578 15.08844139 64081,6917.868,95.437,540.766,538.7,0.0
51469.0,STARLINK-3182,PAYLOAD,2023-03-28 10:24:57,15.08861341,0.0001369,53.2153,75.1042,95.6824,264.4324,0.00082172,0.00012821,0.0,0 STARLINK-3182,1 51469U 22010P   23087.43399721  .00012821  00000-0  82172-3 0  9995,2 51469  53.2153  75.1042 0001369  95.6824 264.4324 15.08861341 64695,6917.815,95.436,540.627,538.733,0.0
51469.0,STARLINK-3182,PAYLOAD,2023-03-28 16:46:30,15.08839354,0.0001445,53.2162,73.9178,72.7983,287.3167,0.00014824,2.072e-05,0.0,0 STARLINK-3182,1 51469U 22010P   23087.69896264  .00002072  00000-0  14824-3 0  9993,2 51469  53.2162  73.9178 0001445  72.7983 287.3167 15.08839354 64731,6917.882,95.438,540.747,538.748,0.0
51469.0,STARLINK-3182,PAYLOAD,2023-03-29 10:15:44,15.08860249,0.000142,53.2165,70.6456,83.9888,276.1266,0.00094712,0.00014826,0.0,0 STARLINK-3182,1 51469U 22010P   23088.42759825  .00014826  00000-0  94712-3 0  9990,2 51469  53.2165  70.6456 0001420  83.9888 276.1266 15.08860249 64843,6917.818,95.436,540.666,538.701,0.0
51469.0,STARLINK-3182,PAYLOAD,2023-03-29 22:58:49,15.0885193,0.0001674,53.2153,68.2668,81.8384,278.2798,0.00097065,0.00015199,0.0,0 STARLINK-3182,1 51469U 22010P   23088.95752302  .00015199  00000-0  97065-3 0  9999,2 51469  53.2153  68.2668 0001674  81.8384 278.2798 15.08851930 64926,6917.844,95.437,540.867,538.551,0.0
51469.0,STARLINK-3182,PAYLOAD,2023-03-30 10:06:31,15.08865632,0.0001342,53.216,66.1857,96.6224,263.4921,0.0018221,0.0002885,0.0,0 STARLINK-3182,1 51469U 22010P   23089.42119871  .00028850  00000-0  18221-2 0  9994,2 51469  53.2160  66.1857 0001342  96.6224 263.4921 15.08865632 64490,6917.802,95.436,540.595,538.739,0.0
51469.0,STARLINK-3182,PAYLOAD,2023-03-31 05:11:09,15.08854489,0.0001145,53.2159,62.6179,101.2528,258.8593,0.0019236,0.00030471,0.0,0 STARLINK-3182,1 51469U 22010P   23090.21608375  .00030471  00000-0  19236-2 0  9994,2 51469  53.2159  62.6179 0001145 101.2528 258.8593 15.08854489 65118,6917.836,95.437,540.493,538.909,0.0
51469.0,STARLINK-3182,PAYLOAD,2023-03-31 21:05:01,15.08842791,0.0001797,53.2161,59.6431,80.891,279.2285,0.0012216,0.00019209,0.0,0 STARLINK-3182,1 51469U 22010P   23090.87848757  .00019209  00000-0  12216-2 0  9993,2 51469  53.2161  59.6431 0001797  80.8910 279.2285 15.08842791 65217,6917.872,95.437,540.98,538.494,0.0
51469.0,STARLINK-3182,PAYLOAD,2023-04-01 06:37:20,15.08846191,9.81e-05,53.2163,57.8594,87.5723,272.5382,0.0015886,0.00025089,0.0,0 STARLINK-3182,1 51469U 22010P   23091.27592768  .00025089  00000-0  15886-2 0  9995,2 51469  53.2163  57.8594 0000981  87.5723 272.5382 15.08846191 65277,6917.861,95.437,540.405,539.048,0.0
51469.0,STARLINK-3182,PAYLOAD,2023-04-02 06:28:07,15.08861649,0.0001199,53.2164,53.3977,85.8024,274.3105,0.0015217,0.00024027,0.0,0 STARLINK-3182,1 51469U 22010P   23092.26952779  .00024027  00000-0  15217-2 0  9996,2 51469  53.2164  53.3977 0001199  85.8024 274.3105 15.08861649 65426,6917.814,95.436,540.509,538.85,0.0
51469.0,STARLINK-3182,PAYLOAD,2023-04-03 04:43:31,15.08852815,0.0001187,53.216,49.2344,93.0737,267.0391,0.00081641,0.00012734,0.0,0 STARLINK-3182,1 51469U 22010P   23093.19688739  .00012734  00000-0  81641-3 0  9998,2 51469  53.2160  49.2344 0001187  93.0737 267.0391 15.08852815 65569,6917.841,95.437,540.527,538.885,0.0
51469.0,STARLINK-3182,PAYLOAD,2023-04-03 06:18:54,15.08855301,0.0001213,53.2159,48.9369,95.1056,265.0075,0.00088565,0.00013841,0.0,0 STARLINK-3182,1 51469U 22010P   23093.26312669  .00013841  00000-0  88565-3 0  9994,2 51469  53.2159  48.9369 0001213  95.1056 265.0075 15.08855301 65073,6917.834,95.437,540.538,538.859,0.0
51469.0,STARLINK-3182,PAYLOAD,2023-04-04 06:09:41,15.08855962,0.0001341,53.2161,44.4754,107.2288,252.8851,0.0010495,0.00016462,0.0,0 STARLINK-3182,1 51469U 22010P   23094.25672640  .00016462  00000-0  10495-2 0  9990,2 51469  53.2161  44.4754 0001341 107.2288 252.8851 15.08855962 65720,6917.832,95.437,540.624,538.769,0.0
51469.0,STARLINK-3182,PAYLOAD,2023-04-04 20:28:09,15.08837926,9.39e-05,53.2166,41.8005,104.5346,255.575,0.00050781,7.803e-05,0.0,0 STARLINK-3182,1 51469U 22010P   23094.85289027  .00007803  00000-0  50781-3 0  9991,2 51469  53.2166  41.8005 0000939 104.5346 255.5750 15.08837926 65810,6917.887,95.438,540.401,539.102,0.0
51469.0,STARLINK-3182,PAYLOAD,2023-04-05 06:00:28,15.0884703,0.0001279,53.2165,40.0153,115.0006,245.1119,0.0007781,0.0001212,0.0,0 STARLINK-3182,1 51469U 22010P   23095.25033002  .00012120  00000-0  77810-3 0  9996,2 51469  53.2165  40.0153 0001279 115.0006 245.1119 15.08847030 65374,6917.859,95.437,540.609,538.839,0.0
51469.0,STARLINK-3182,PAYLOAD,2023-04-06 05:51:15,15.08849794,0.0001203,53.2171,35.5552,109.4921,250.6201,0.00065165,0.00010101,0.0,0 STARLINK-3182,1 51469U 22010P   23096.24393074  .00010101  00000-0  65165-3 0  9991,2 51469  53.2171  35.5552 0001203 109.4921 250.6201 15.08849794 66028,6917.85,95.437,540.548,538.883,0.0
51469.0,STARLINK-3182,PAYLOAD,2023-04-06 20:09:44,15.08842785,0.000172,53.2178,32.8788,110.6683,249.4494,0.00029301,4.379e-05,0.0,0 STARLINK-3182,1 51469U 22010P   23096.84009317  .00004379  00000-0  29301-3 0  9993,2 51469  53.2178  32.8788 0001720 110.6683 249.4494 15.08842785 66112,6917.872,95.437,540.927,538.547,0.0
51469.0,STARLINK-3182,PAYLOAD,2023-04-07 02:31:16,15.08844761,0.0001139,53.2176,31.6905,107.6981,252.4136,0.00028505,4.252e-05,0.0,0 STARLINK-3182,1 51469U 22010P   23097.10505279  .00004252  00000-0  28505-3 0  9996,2 51469  53.2176  31.6905 0001139 107.6981 252.4136 15.08844761 65650,6917.866,95.437,540.519,538.943,0.0
51469.0,STARLINK-3182,PAYLOAD,2023-04-07 20:00:31,15.08832279,0.0001197,53.2177,28.4209,104.7696,255.3429,0.00050317,7.727e-05,0.0,0 STARLINK-3182,1 51469U 22010P   23097.83369973  .00007727  00000-0  50317-3 0  9991,2 51469  53.2177  28.4209 0001197 104.7696 255.3429 15.08832279 66263,6917.904,95.438,540.597,538.941,0.0
51469.0,STARLINK-3182,PAYLOAD,2023-04-08 02:22:03,15.08844414,0.0001072,53.2176,27.2318,104.4859,255.6252,0.00015942,2.251e-05,0.0,0 STARLINK-3182,1 51469U 22010P   23098.09865292  .00002251  00000-0  15942-3 0  9997,2 51469  53.2176  27.2318 0001072 104.4859 255.6252 15.08844414 66306,6917.867,95.437,540.473,538.99,0.0
51469.0,STARLINK-3182,PAYLOAD,2023-04-09 03:48:13,15.08846092,0.0001188,53.2178,22.4784,105.4815,254.6309,0.00019331,2.791e-05,0.0,0 STARLINK-3182,1 51469U 22010P   23099.15849516  .00002791  00000-0  19331-3 0  9991,2 51469  53.2178  22.4784 0001188 105.4815 254.6309 15.08846092 66466,6917.862,95.437,540.549,538.905,0.0
51469.0,STARLINK-3182,PAYLOAD,2023-04-10 05:14:24,15.08846303,0.0001276,53.2174,17.7145,81.5698,278.5438,0.00013129,1.803e-05,0.0,0 STARLINK-3182,1 51469U 22010P   23100.21833458  .00001803  00000-0  13129-3 0  9991,2 51469  53.2174  17.7145 0001276  81.5698 278.5438 15.08846303 66622,6917.861,95.437,540.609,538.843,0.0
51469.0,STARLINK-3182,PAYLOAD,2023-04-11 03:29:47,15.08849653,0.0001356,53.2176,13.5493,85.1708,274.9439,0.00023562,3.465e-05,0.0,0 STARLINK-3182,1 51469U 22010P   23101.14569278  .00003465  00000-0  23562-3 0  9998,2 51469  53.2176  13.5493 0001356  85.1708 274.9439 15.08849653 66267,6917.851,95.437,540.654,538.778,0.0
51469.0,STARLINK-3182,PAYLOAD,2023-04-11 17:48:16,15.08838547,0.0001357,53.2168,10.8761,78.2036,281.9108,2.3927e-05,9.3e-07,0.0,0 STARLINK-3182,1 51469U 22010P   23101.74185949  .00000093  00000-0  23927-4 0  9993,2 51469  53.2168  10.8761 0001357  78.2036 281.9108 15.08838547 66355,6917.885,95.438,540.689,538.811,0.0
51469.0,STARLINK-3182,PAYLOAD,2023-04-12 03:20:35,15.08842768,0.0001245,53.2164,9.0903,95.0654,265.048,0.00013958,1.934e-05,0.0,0 STARLINK-3182,1 51469U 22010P   23102.13929809  .00001934  00000-0  13958-3 0  9995,2 51469  53.2164   9.0903 0001245  95.0654 265.0480 15.08842768 66411,6917.872,95.437,540.598,538.876,0.0
51469.0,STARLINK-3182,PAYLOAD,2023-04-13 03:11:22,15.08846832,0.0001258,53.2167,4.6304,92.9817,267.1319,0.00016479,2.336e-05,0.0,0 STARLINK-3182,1 51469U 22010P   23103.13289695  .00002336  00000-0  16479-3 0  9996,2 51469  53.2167   4.6304 0001258  92.9817 267.1319 15.08846832 66567,6917.86,95.437,540.595,538.854,0.0
51469.0,STARLINK-3182,PAYLOAD,2023-04-13 20:40:37,15.08839551,0.0001279,53.2173,1.3587,99.3463,260.7673,5.8156e-05,6.38e-06,0.0,0 STARLINK-3182,1 51469U 22010P   23103.86154016  .00000638  00000-0  58156-4 0  9996,2 51469  53.2173   1.3587 0001279  99.3463 260.7673 15.08839551 67172,6917.882,95.438,540.632,538.862,0.0
51469.0,STARLINK-3182,PAYLOAD,2023-04-14 03:02:09,15.08845295,0.0001098,53.2169,0.1699,88.6601,271.4517,0.00012503,1.703e-05,0.0,0 STARLINK-3182,1 51469U 22010P   23104.12649722  .00001703  00000-0  12503-3 0  9998,2 51469  53.2169   0.1699 0001098  88.6601 271.4517 15.08845295 66719,6917.864,95.437,540.489,538.97,0.0
